KUIPER-00074            
1 64821U 25151F   25236.90012340  .00023987  00000+0  68168-3 0  9992
2 64821  51.8766  96.4944 0004994 292.8287  67.2172 15.36032329  6089
KUIPER-00075            
1 64822U 25151G   25238.32136566  .00036074  00000+0  99072-3 0  9997
2 64822  51.8771  89.5328 0004622 283.6810  76.3662 15.36883390  6305
KUIPER-00076            
1 64823U 25151H   25237.03321372  .00037756  00000+0  10699-2 0  9991
2 64823  51.8763  95.8878 0005654 292.5596  67.4791 15.35880436  6102
KUIPER-00077            
1 64824U 25151J   25238.58337963  .00033493  00000+0  11504-2 0  9996
2 64824  51.8801  88.6423 0005197 288.4476 267.8374 15.29806078  5919
KUIPER-00078            
1 64825U 25151K   25238.07617031 -.00093807  00000+0 -27079-2 0  9999
2 64825  51.8778  90.8812 0004448 276.5197  83.5282 15.35401479  6269
KUIPER-00079            
1 64826U 25151L   25238.58337963 -.00482995  00000+0 -21965-1 0  9996
2 64826  51.8834  89.1238 0006628 300.8523 345.1584 15.22418599  5877
KUIPER-00080            
1 64827U 25151M   25238.58337963 -.01174826  00000+0 -52183-1 0  9995
2 64827  51.8850  89.1349 0002286 311.0703  12.7455 15.23838727  4366
KUIPER-00082            
1 64828U 25151N   25238.32484942  .00032041  00000+0  89896-3 0  9990
2 64828  51.8781  89.5479 0005413 283.0300  77.0082 15.36272731  6301
KUIPER-00083            
1 64829U 25151P   25238.14070410 -.00057125  00000+0 -16929-2 0  9990
2 64829  51.8778  90.5534 0005542 295.1375  64.9035 15.34341155  7467
KUIPER-00084            
1 64830U 25151Q   25238.58337963 -.00659534  00000+0 -40782-1 0  9994
2 64830  51.8881  91.1282 0008257 283.4580  82.9353 15.11703423  4325
KUIPER-00085            
1 64831U 25151R   25238.32113165  .00026916  00000+0  75081-3 0  9995
2 64831  51.8789  89.5257 0005932 283.1271  76.9053 15.36543342  6306
KUIPER-00086            
1 64832U 25151S   25238.58337963 -.01319356  00000+0 -50547-1 0  9992
2 64832  51.8798  88.6877 0008661 295.5662 213.1472 15.28960780  5914
KUIPER-00087            
1 64833U 25151T   25237.80731017  .00028125  00000+0  79213-3 0  9996
2 64833  51.8785  92.0844 0005461 294.5970  65.4447 15.36220666  6226
KUIPER-00089            
1 64834U 25151U   25238.07479794  .00039190  00000+0  11057-2 0  9993
2 64834  51.8784  90.8780 0006395 308.1870  51.8540 15.35995839  6266
KUIPER-00090            
1 64835U 25151V   25237.75559268  .00032953  00000+0  94013-3 0  9997
2 64835  51.8779  92.4832 0005241 306.2956  53.7546 15.35737089  6213
KUIPER-00091            
1 64836U 25151W   25238.32443511  .00027443  00000+0  77313-3 0  9997
2 64836  51.8777  89.5447 0006039 284.1260  75.9055 15.36222819  6301
KUIPER-00092            
1 64837U 25151X   25238.58337963  .00048033  00000+0  13410-2 0  9994
2 64837  51.8780  88.3303 0005623 289.3770  45.3315 15.36236011  3514
KUIPER-00093            
1 64838U 25151Y   25236.83759435  .00024244  00000+0  69017-3 0  9996
2 64838  51.8775  96.8367 0005248 288.7033  71.3383 15.35971205  6079
KUIPER-00094            
1 64839U 25151Z   25238.00231333  .00040435  00000+0  11305-2 0  9996
2 64839  51.8781  91.1351 0005835 293.3317  66.7055 15.36267250  6250
KUIPER-00081            
1 65132U 25171A   25238.55265085  .00024258  00000+0  69376-3 0  9993
2 65132  51.8776 332.1829 0005621 172.4767 187.6304 15.35824838  3569
KUIPER-00088            
1 65133U 25171B   25238.55330552  .00027517  00000+0  78630-3 0  9990
2 65133  51.8777 332.1900 0005202 173.4900 186.6155 15.35780998  3567
KUIPER-00095            
1 65134U 25171C   25238.55888127  .00022790  00000+0  66572-3 0  9997
2 65134  51.8773 332.2217 0004857 201.4015 158.6769 15.35200119  3562
KUIPER-00096            
1 65135U 25171D   25238.55663308  .00029500  00000+0  85140-3 0  9998
2 65135  51.8767 332.2063 0004612 190.3070 169.7822 15.35433488  3561
KUIPER-00097            
1 65136U 25171E   25238.55953051  .00026698  00000+0  77933-3 0  9992
2 65136  51.8771 332.2263 0004834 205.2985 154.7765 15.35130378  3557
KUIPER-00098            
1 65137U 25171F   25238.55246119  .00024042  00000+0  68849-3 0  9990
2 65137  51.8774 332.1817 0005744 174.8444 185.2602 15.35787852  2909
KUIPER-00099            
1 65138U 25171G   25238.55416220  .00023309  00000+0  67025-3 0  9993
2 65138  51.8778 332.1947 0005544 178.0106 182.0903 15.35678430  3559
KUIPER-00100            
1 65139U 25171H   25238.55586373  .00028659  00000+0  82575-3 0  9991
2 65139  51.8767 332.2004 0005189 185.8267 174.2659 15.35498952  3552
KUIPER-00102            
1 65140U 25171J   25238.55878431  .00026445  00000+0  77087-3 0  9995
2 65140  51.8767 332.2198 0004566 197.5534 162.5294 15.35180111  3553
KUIPER-00103            
1 65141U 25171K   25238.55723475  .00030485  00000+0  88087-3 0  9994
2 65141  51.8763 332.2094 0004594 193.0157 167.0711 15.35379941  3553
KUIPER-00104            
1 65142U 25171L   25238.55630507  .00023805  00000+0  69025-3 0  9997
2 65142  51.8780 332.2100 0004486 189.4884 170.6018 15.35407608  3559
KUIPER-00105            
1 65143U 25171M   25238.55192138  .00027927  00000+0  79431-3 0  9992
2 65143  51.8775 332.1790 0005879 171.7194 188.3890 15.35915199  3567
KUIPER-00106            
1 65144U 25171N   25238.55515759  .00025090  00000+0  72245-3 0  9996
2 65144  51.8772 332.1958 0005277 182.0798 178.0167 15.35593097  3560
KUIPER-00107            
1 65145U 25171P   25238.55553306  .00024898  00000+0  71831-3 0  9992
2 65145  51.8781 332.2052 0005300 184.0286 176.0658 15.35536978  3566
KUIPER-00108            
1 65146U 25171Q   25238.55880607  .00015309  00000+0  45284-3 0  9990
2 65146  51.8782 332.2271 0005415 201.8159 158.2597 15.35086732  3567
KUIPER-00109            
1 65147U 25171R   25238.55363711  .00027576  00000+0  79106-3 0  9992
2 65147  51.8773 332.1875 0005317 178.8547 181.2453 15.35657149  3554
KUIPER-00110            
1 65148U 25171S   25238.55479189  .00026518  00000+0  76188-3 0  9992
2 65148  51.8780 332.2007 0005226 179.6882 180.4108 15.35631854  3554
KUIPER-00111            
1 65149U 25171T   25238.55738933  .00026807  00000+0  77688-3 0  9995
2 65149  51.8781 332.2178 0004513 195.9492 164.1353 15.35356537  3554
KUIPER-00112            
1 65150U 25171U   25238.55994277  .00024360  00000+0  71288-3 0  9994
2 65150  51.8779 332.2321 0005226 209.4297 150.6396 15.35101223  3556
KUIPER-00114            
1 65151U 25171V   25238.55867260  .00024642  00000+0  72001-3 0  9993
2 65151  51.8778 332.2221 0004951 199.0671 161.0130 15.35144562  3554
KUIPER-00115            
1 65152U 25171W   25238.55467434  .00026576  00000+0  76418-3 0  9997
2 65152  51.8772 332.1940 0005525 180.0277 180.0710 15.35602911  3558
KUIPER-00116            
1 65153U 25171X   25238.55729056  .00018358  00000+0  53614-3 0  9991
2 65153  51.8781 332.2172 0005102 196.6251 163.4568 15.35350748  3557
KUIPER-00118            
1 65154U 25171Y   25238.55914783  .00023802  00000+0  69485-3 0  9998
2 65154  51.8781 332.2264 0004700 203.4387 156.6385 15.35193915  3552
KUIPER-00119            
1 65155U 25171Z   25238.55278737  .00018342  00000+0  52825-3 0  9994
2 65155  51.8773 332.1823 0005756 179.0722 181.0276 15.35786896  3554
